ERS-1                   
1 21574U 91050A   26093.51260816  .00000556  00000+0  19198-3 0  9999
2 21574  98.7859 112.3694 0032905 127.5596 232.8588 14.39469884819300
ARIANE 40 R/B           
1 21610U 91050F   26093.15778804  .00000516  00000+0  16693-3 0  9994
2 21610  98.1961 144.4699 0003234  24.5636 335.5708 14.42912702822523
INTERCOSMOS 25          
1 21819U 91086A   26093.50379723  .00002683  00000+0  52042-3 0  9995
2 21819  82.6000 295.0053 1486358  63.4699 311.0967 12.12089337499695
SL-8 R/B                
1 21876U 92008B   26093.51868564  .00000021  00000+0  53938-5 0  9991
2 21876  82.9241 249.3037 0035820  66.4004 356.5727 13.75969845712831
SL-8 R/B                
1 21938U 92020B   26093.50632148  .00000033  00000+0  18630-4 0  9992
2 21938  82.9293 135.3344 0028000 226.3824 244.4051 13.75550678704545
USA 81                  
1 21949U 92023A   26093.52808401  .00000251  00000+0  85380-4 0  9994
2 21949  85.0040 117.1055 0001548  69.6189 290.5170 14.32376520 98342
COSMOS 2219             
1 22219U 92076A   26093.35005807 -.00000165  00000+0 -61691-4 0  9998
2 22219  71.0609 326.5211 0017701 169.7924 190.3561 14.14089106721868
SL-16 R/B               
1 22220U 92076B   26093.56736406 -.00000136  00000+0 -44168-4 0  9997
2 22220  70.9986 135.9727 0010894  50.5206 111.1924 14.16862791725359
COSMOS 2221             
1 22236U 92080A   26093.51505954  .00004037  00000+0  35403-3 0  9999
2 22236  82.5012 255.2931 0015693 107.9049 252.3885 14.96315251784500
SL-16 R/B               
1 22285U 92093B   26093.33266466 -.00000022  00000+0  12886-4 0  9991
2 22285  71.0222 312.5360 0006635 270.1453  89.8910 14.15456175716645
COSMOS 2228             
1 22286U 92094A   26093.51479227  .00004194  00000+0  35827-3 0  9996
2 22286  82.5199 213.5416 0017182 214.4154 145.5957 14.97329460779776
SL-16 R/B               
1 22566U 93016B   26093.51692482  .00000334  00000+0  19595-3 0  9998
2 22566  71.0073 163.0406 0012374 282.3220  77.6518 14.15308026705687
