CCSDS_OMM_VERS = 2.0
CREATION_DATE  = 
ORIGINATOR     = 

OBJECT_NAME    = ERS-1
OBJECT_ID      = 1991-050A
CENTER_NAME    = EARTH
REF_FRAME      = TEME
TIME_SYSTEM    = UTC
MEAN_ELEMENT_THEORY = SGP/SGP4

EPOCH          = 2026-04-03T12:18:09.345024
MEAN_MOTION    = 14.39469884
ECCENTRICITY   = .0032905
INCLINATION    = 98.7859
RA_OF_ASC_NODE = 112.3694
ARG_OF_PERICENTER = 127.5596
MEAN_ANOMALY   = 232.8588

EPHEMERIS_TYPE = 0
CLASSIFICATION_TYPE = U
NORAD_CAT_ID   = 21574
ELEMENT_SET_NO = 999
REV_AT_EPOCH   = 81930
BSTAR          = .19198E-3
MEAN_MOTION_DOT = .556E-5
MEAN_MOTION_DDOT = 0

CCSDS_OMM_VERS = 2.0
CREATION_DATE  = 
ORIGINATOR     = 

OBJECT_NAME    = ARIANE 40 R/B
OBJECT_ID      = 1991-050F
CENTER_NAME    = EARTH
REF_FRAME      = TEME
TIME_SYSTEM    = UTC
MEAN_ELEMENT_THEORY = SGP/SGP4

EPOCH          = 2026-04-03T03:47:12.886656
MEAN_MOTION    = 14.42912702
ECCENTRICITY   = .00032346
INCLINATION    = 98.1961
RA_OF_ASC_NODE = 144.4699
ARG_OF_PERICENTER = 24.5636
MEAN_ANOMALY   = 335.5708

EPHEMERIS_TYPE = 0
CLASSIFICATION_TYPE = U
NORAD_CAT_ID   = 21610
ELEMENT_SET_NO = 999
REV_AT_EPOCH   = 82252
BSTAR          = .16692506E-3
MEAN_MOTION_DOT = .516E-5
MEAN_MOTION_DDOT = 0

CCSDS_OMM_VERS = 2.0
CREATION_DATE  = 
ORIGINATOR     = 

OBJECT_NAME    = INTERCOSMOS 25
OBJECT_ID      = 1991-086A
CENTER_NAME    = EARTH
REF_FRAME      = TEME
TIME_SYSTEM    = UTC
MEAN_ELEMENT_THEORY = SGP/SGP4

EPOCH          = 2026-04-03T12:05:28.080672
MEAN_MOTION    = 12.12089337
ECCENTRICITY   = .1486358
INCLINATION    = 82.6000
RA_OF_ASC_NODE = 295.0053
ARG_OF_PERICENTER = 63.4699
MEAN_ANOMALY   = 311.0967

EPHEMERIS_TYPE = 0
CLASSIFICATION_TYPE = U
NORAD_CAT_ID   = 21819
ELEMENT_SET_NO = 999
REV_AT_EPOCH   = 49969
BSTAR          = .52042E-3
MEAN_MOTION_DOT = .2683E-4
MEAN_MOTION_DDOT = 0

CCSDS_OMM_VERS = 2.0
CREATION_DATE  = 
ORIGINATOR     = 

OBJECT_NAME    = SL-8 R/B
OBJECT_ID      = 1992-008B
CENTER_NAME    = EARTH
REF_FRAME      = TEME
TIME_SYSTEM    = UTC
MEAN_ELEMENT_THEORY = SGP/SGP4

EPOCH          = 2026-04-03T12:26:54.439296
MEAN_MOTION    = 13.75969845
ECCENTRICITY   = .003582
INCLINATION    = 82.9241
RA_OF_ASC_NODE = 249.3037
ARG_OF_PERICENTER = 66.4004
MEAN_ANOMALY   = 356.5727

EPHEMERIS_TYPE = 0
CLASSIFICATION_TYPE = U
NORAD_CAT_ID   = 21876
ELEMENT_SET_NO = 999
REV_AT_EPOCH   = 71283
BSTAR          = .53938E-5
MEAN_MOTION_DOT = .21E-6
MEAN_MOTION_DDOT = 0

CCSDS_OMM_VERS = 2.0
CREATION_DATE  = 
ORIGINATOR     = 

OBJECT_NAME    = SL-8 R/B
OBJECT_ID      = 1992-020B
CENTER_NAME    = EARTH
REF_FRAME      = TEME
TIME_SYSTEM    = UTC
MEAN_ELEMENT_THEORY = SGP/SGP4

EPOCH          = 2026-04-03T12:09:06.175872
MEAN_MOTION    = 13.75550678
ECCENTRICITY   = .0028
INCLINATION    = 82.9293
RA_OF_ASC_NODE = 135.3344
ARG_OF_PERICENTER = 226.3824
MEAN_ANOMALY   = 244.4051

EPHEMERIS_TYPE = 0
CLASSIFICATION_TYPE = U
NORAD_CAT_ID   = 21938
ELEMENT_SET_NO = 999
REV_AT_EPOCH   = 70454
BSTAR          = .1863E-4
MEAN_MOTION_DOT = .33E-6
MEAN_MOTION_DDOT = 0

CCSDS_OMM_VERS = 2.0
CREATION_DATE  = 
ORIGINATOR     = 

OBJECT_NAME    = USA 81
OBJECT_ID      = 1992-023A
CENTER_NAME    = EARTH
REF_FRAME      = TEME
TIME_SYSTEM    = UTC
MEAN_ELEMENT_THEORY = SGP/SGP4

EPOCH          = 2026-04-03T12:40:26.458464
MEAN_MOTION    = 14.32376520
ECCENTRICITY   = .0001548
INCLINATION    = 85.0040
RA_OF_ASC_NODE = 117.1055
ARG_OF_PERICENTER = 69.6189
MEAN_ANOMALY   = 290.5170

EPHEMERIS_TYPE = 0
CLASSIFICATION_TYPE = U
NORAD_CAT_ID   = 21949
ELEMENT_SET_NO = 999
REV_AT_EPOCH   = 9834
BSTAR          = .8538E-4
MEAN_MOTION_DOT = .251E-5
MEAN_MOTION_DDOT = 0

CCSDS_OMM_VERS = 2.0
CREATION_DATE  = 
ORIGINATOR     = 

OBJECT_NAME    = COSMOS 2219
OBJECT_ID      = 1992-076A
CENTER_NAME    = EARTH
REF_FRAME      = TEME
TIME_SYSTEM    = UTC
MEAN_ELEMENT_THEORY = SGP/SGP4

EPOCH          = 2026-04-03T08:24:05.017248
MEAN_MOTION    = 14.14089106
ECCENTRICITY   = .0017701
INCLINATION    = 71.0609
RA_OF_ASC_NODE = 326.5211
ARG_OF_PERICENTER = 169.7924
MEAN_ANOMALY   = 190.3561

EPHEMERIS_TYPE = 0
CLASSIFICATION_TYPE = U
NORAD_CAT_ID   = 22219
ELEMENT_SET_NO = 999
REV_AT_EPOCH   = 72186
BSTAR          = -.61691E-4
MEAN_MOTION_DOT = -.165E-5
MEAN_MOTION_DDOT = 0

CCSDS_OMM_VERS = 2.0
CREATION_DATE  = 
ORIGINATOR     = 

OBJECT_NAME    = SL-16 R/B
OBJECT_ID      = 1992-076B
CENTER_NAME    = EARTH
REF_FRAME      = TEME
TIME_SYSTEM    = UTC
MEAN_ELEMENT_THEORY = SGP/SGP4

EPOCH          = 2026-04-03T13:37:00.254784
MEAN_MOTION    = 14.16862791
ECCENTRICITY   = .0010894
INCLINATION    = 70.9986
RA_OF_ASC_NODE = 135.9727
ARG_OF_PERICENTER = 50.5206
MEAN_ANOMALY   = 111.1924

EPHEMERIS_TYPE = 0
CLASSIFICATION_TYPE = U
NORAD_CAT_ID   = 22220
ELEMENT_SET_NO = 999
REV_AT_EPOCH   = 72535
BSTAR          = -.44168E-4
MEAN_MOTION_DOT = -.136E-5
MEAN_MOTION_DDOT = 0

CCSDS_OMM_VERS = 2.0
CREATION_DATE  = 
ORIGINATOR     = 

OBJECT_NAME    = COSMOS 2221
OBJECT_ID      = 1992-080A
CENTER_NAME    = EARTH
REF_FRAME      = TEME
TIME_SYSTEM    = UTC
MEAN_ELEMENT_THEORY = SGP/SGP4

EPOCH          = 2026-04-03T12:21:41.144256
MEAN_MOTION    = 14.96315251
ECCENTRICITY   = .0015693
INCLINATION    = 82.5012
RA_OF_ASC_NODE = 255.2931
ARG_OF_PERICENTER = 107.9049
MEAN_ANOMALY   = 252.3885

EPHEMERIS_TYPE = 0
CLASSIFICATION_TYPE = U
NORAD_CAT_ID   = 22236
ELEMENT_SET_NO = 999
REV_AT_EPOCH   = 78450
BSTAR          = .35403E-3
MEAN_MOTION_DOT = .4037E-4
MEAN_MOTION_DDOT = 0

CCSDS_OMM_VERS = 2.0
CREATION_DATE  = 
ORIGINATOR     = 

OBJECT_NAME    = SL-16 R/B
OBJECT_ID      = 1992-093B
CENTER_NAME    = EARTH
REF_FRAME      = TEME
TIME_SYSTEM    = UTC
MEAN_ELEMENT_THEORY = SGP/SGP4

EPOCH          = 2026-04-03T07:59:02.226624
MEAN_MOTION    = 14.15456175
ECCENTRICITY   = .0006635
INCLINATION    = 71.0222
RA_OF_ASC_NODE = 312.5360
ARG_OF_PERICENTER = 270.1453
MEAN_ANOMALY   = 89.8910

EPHEMERIS_TYPE = 0
CLASSIFICATION_TYPE = U
NORAD_CAT_ID   = 22285
ELEMENT_SET_NO = 999
REV_AT_EPOCH   = 71664
BSTAR          = .12886E-4
MEAN_MOTION_DOT = -.22E-6
MEAN_MOTION_DDOT = 0

CCSDS_OMM_VERS = 2.0
CREATION_DATE  = 
ORIGINATOR     = 

OBJECT_NAME    = COSMOS 2228
OBJECT_ID      = 1992-094A
CENTER_NAME    = EARTH
REF_FRAME      = TEME
TIME_SYSTEM    = UTC
MEAN_ELEMENT_THEORY = SGP/SGP4

EPOCH          = 2026-04-03T12:21:18.052128
MEAN_MOTION    = 14.97329460
ECCENTRICITY   = .0017182
INCLINATION    = 82.5199
RA_OF_ASC_NODE = 213.5416
ARG_OF_PERICENTER = 214.4154
MEAN_ANOMALY   = 145.5957

EPHEMERIS_TYPE = 0
CLASSIFICATION_TYPE = U
NORAD_CAT_ID   = 22286
ELEMENT_SET_NO = 999
REV_AT_EPOCH   = 77977
BSTAR          = .35827E-3
MEAN_MOTION_DOT = .4194E-4
MEAN_MOTION_DDOT = 0

CCSDS_OMM_VERS = 2.0
CREATION_DATE  = 
ORIGINATOR     = 

OBJECT_NAME    = SL-16 R/B
OBJECT_ID      = 1993-016B
CENTER_NAME    = EARTH
REF_FRAME      = TEME
TIME_SYSTEM    = UTC
MEAN_ELEMENT_THEORY = SGP/SGP4

EPOCH          = 2026-04-03T12:24:22.304448
MEAN_MOTION    = 14.15308026
ECCENTRICITY   = .0012374
INCLINATION    = 71.0073
RA_OF_ASC_NODE = 163.0406
ARG_OF_PERICENTER = 282.3220
MEAN_ANOMALY   = 77.6518

EPHEMERIS_TYPE = 0
CLASSIFICATION_TYPE = U
NORAD_CAT_ID   = 22566
ELEMENT_SET_NO = 999
REV_AT_EPOCH   = 70568
BSTAR          = .19595E-3
MEAN_MOTION_DOT = .334E-5
MEAN_MOTION_DDOT = 0

